     2.100          NAVIGATION                              RINEX VERSION / TYPE
fic2rin                                 11/11/2016 00:08:37 PGM / RUN BY / DATE
                                                            END OF HEADER
19 16 11 10 10  0  0.0 -.520279165357D-03  .682121026330D-12  .000000000000D+00
     .920000000000D+02  .440312500000D+02  .448804408791D-08 -.444758042666D+00
     .249408185482D-05  .103318311740D-01  .683590769768D-05  .515363392067D+04
     .381600000000D+06  .465661287308D-07  .157314344134D+00  .128522515297D-06
     .975523937253D+00  .258093750000D+03  .885873052123D+00 -.828963101069D-08
     .428589281035D-09  .100000000000D+01  .192200000000D+04  .000000000000D+00
     .240000000000D+01  .000000000000D+00 -.149011611938D-07  .920000000000D+02
     .374406000000D+06  .400000000000D+01
20 16 11 10 10  0  0.0  .445246230811D-03  .193267624127D-11  .000000000000D+00
     .710000000000D+02 -.565000000000D+02  .521021702645D-08  .183874570712D+01
    -.310316681862D-05  .476039049681D-02  .120364129543D-04  .515360574341D+04
     .381600000000D+06  .670552253723D-07  .206742566437D+01 -.894069671631D-07
     .926327378854D+00  .128500000000D+03  .148645315569D+01 -.833784730481D-08
    -.345014371233D-09  .100000000000D+01  .192200000000D+04  .000000000000D+00
     .240000000000D+01  .000000000000D+00 -.838190317154D-08  .710000000000D+02
     .374406000000D+06  .400000000000D+01
21 16 11 10 10  0  0.0 -.531892757863D-03  .909494701773D-12  .000000000000D+00
     .610000000000D+02 -.422812500000D+02  .563523473015D-08 -.106964748521D+01
    -.186450779438D-05  .234083164250D-01  .452250242233D-05  .515378802872D+04
     .381600000000D+06 -.223517417908D-06  .107728491237D+01  .536441802979D-06
     .937508606562D+00  .280875000000D+03 -.174415199338D+01 -.903287625555D-08
    -.241438628317D-09  .100000000000D+01  .192200000000D+04  .000000000000D+00
     .340000000000D+01  .000000000000D+00 -.977888703346D-08  .610000000000D+02
     .374406000000D+06  .400000000000D+01
22 16 11 10 10  0  0.0  .194342806935D-03 -.106865627458D-10  .000000000000D+00
     .160000000000D+02 -.412187500000D+02  .522414617809D-08  .220142403771D+01
    -.233389437199D-05  .732362573035D-02  .107344239950D-04  .515368306923D+04
     .381600000000D+06  .763684511185D-07  .211931275880D+01 -.124797224998D-06
     .923018528798D+00  .150093750000D+03 -.185046083409D+01 -.825570102594D-08
    -.272154193457D-09  .100000000000D+01  .192200000000D+04  .000000000000D+00
     .240000000000D+01  .000000000000D+00 -.176951289177D-07  .160000000000D+02
     .374406000000D+06  .400000000000D+01
23 16 11 10 10  0  0.0 -.196240842342D-03 -.125055521494D-11  .000000000000D+00
     .430000000000D+02  .758437500000D+02  .490377569051D-08  .147320483644D+01
     .406615436077D-05  .111373543041D-01  .840239226818D-05  .515359141922D+04
     .381600000000D+06 -.180676579475D-06 -.308401961937D+01  .134110450745D-06
     .945609423262D+00  .212375000000D+03 -.252393807972D+01 -.841320758672D-08
     .179293182566D-09  .100000000000D+01  .192200000000D+04  .000000000000D+00
     .240000000000D+01  .000000000000D+00 -.200234353542D-07  .430000000000D+02
     .374406000000D+06  .400000000000D+01
24 16 11 10 10  0  0.0 -.258949585259D-04 -.568434188608D-12  .000000000000D+00
     .108000000000D+03 -.971875000000D+01  .518021577678D-08  .894710924987D+00
    -.571832060814D-06  .495112570934D-02  .408105552197D-05  .515371466064D+04
     .381600000000D+06  .558793544769D-08 -.205931458823D+01  .102445483208D-06
     .947491697049D+00  .294093750000D+03  .395999983720D+00 -.864464579848D-08
    -.256082095419D-09  .100000000000D+01  .192200000000D+04  .000000000000D+00
     .340000000000D+01  .000000000000D+00  .232830643654D-08  .108000000000D+03
     .374406000000D+06  .400000000000D+01
25 16 11 10 10  0  0.0 -.279402360320D-03 -.682121026330D-11  .000000000000D+00
     .460000000000D+02 -.300312500000D+02  .401981029838D-08 -.118906145183D+01
    -.151246786118D-05  .567403831519D-02  .115931034088D-04  .515368002892D+04
     .381600000000D+06  .149011611938D-06 -.981888483779D+00  .167638063431D-07
     .978040823440D+00  .164531250000D+03  .763254442028D+00 -.782318300983D-08
    -.132862677121D-09  .100000000000D+01  .192200000000D+04  .000000000000D+00
     .240000000000D+01  .000000000000D+00  .558793544769D-08  .460000000000D+02
     .374406000000D+06  .400000000000D+01
26 16 11 10 10  0  0.0 -.498986337334D-03 -.477484718431D-11  .000000000000D+00
     .240000000000D+02 -.349687500000D+02  .442196990708D-08 -.152991364010D+01
    -.197812914848D-05  .120692467317D-02  .106673687696D-04  .515360915375D+04
     .381600000000D+06 -.521540641785D-07 -.993809172690D+00 -.204890966415D-07
     .959918903790D+00  .174906250000D+03 -.202578043309D+00 -.799711882638D-08
    -.113576159474D-09  .100000000000D+01  .192200000000D+04  .000000000000D+00
     .240000000000D+01  .000000000000D+00  .745058059692D-08  .240000000000D+02
     .374406000000D+06  .400000000000D+01
27 16 11 10 10  0  0.0  .163562595844D-03  .511590769747D-11  .000000000000D+00
     .650000000000D+02  .511250000000D+02  .438446834499D-08  .276976617252D+01
     .273436307907D-05  .391800038051D-02  .786967575550D-05  .515365437126D+04
     .381600000000D+06 -.763684511185D-07  .581703231875D-01 -.540167093277D-07
     .973317755848D+00  .233281250000D+03  .318285686494D+00 -.794818821680D-08
     .471091051405D-09  .100000000000D+01  .192200000000D+04  .000000000000D+00
     .240000000000D+01  .000000000000D+00  .139698386192D-08  .650000000000D+02
     .374406000000D+06  .400000000000D+01
28 16 11 10 10  0  0.0  .565879978240D-03  .284217094304D-11  .000000000000D+00
     .111000000000D+03 -.110312500000D+02  .365086635895D-08 -.269294921754D+01
    -.646337866783D-06  .200752537930D-01  .105760991573D-04  .515363830185D+04
     .381600000000D+06  .253319740295D-06 -.905395790443D+00  .130385160446D-06
     .989241210987D+00  .184125000000D+03 -.160307926127D+01 -.732244786649D-08
     .250010413937D-10  .100000000000D+01  .192200000000D+04  .000000000000D+00
     .340000000000D+01  .000000000000D+00 -.111758708954D-07  .111000000000D+03
     .374406000000D+06  .400000000000D+01
29 16 11 10 10  0  0.0  .644104555249D-03 -.159161572810D-11  .000000000000D+00
     .900000000000D+02  .496250000000D+02  .439911181209D-08 -.143388376066D+01
     .268034636974D-05  .496913446113D-03  .748597085476D-05  .515371981430D+04
     .381600000000D+06  .819563865662D-07  .118904168927D+00 -.372529029846D-07
     .979403913453D+00  .245125000000D+03 -.371989156099D-01 -.813033866124D-08
     .494306304127D-09  .100000000000D+01  .192200000000D+04  .000000000000D+00
     .340000000000D+01  .000000000000D+00 -.102445483208D-07  .900000000000D+02
     .374406000000D+06  .400000000000D+01
31 16 11 10 10  0  0.0  .237556174397D-03 -.216004991671D-11  .000000000000D+00
     .410000000000D+02 -.209687500000D+02  .467233747875D-08 -.209057924833D+00
    -.111572444439D-05  .845361838583D-02  .419095158577D-05  .515358425140D+04
     .381600000000D+06  .135973095894D-06 -.199915854246D+01 -.121071934700D-06
     .969185531610D+00  .298875000000D+03 -.359386814658D+00 -.845606651483D-08
    -.198579700213D-09  .100000000000D+01  .192200000000D+04  .000000000000D+00
     .240000000000D+01  .000000000000D+00 -.135041773319D-07  .410000000000D+02
     .374406000000D+06  .400000000000D+01
32 16 11 10 10  0  0.0 -.191949307919D-03 -.168256519828D-10  .000000000000D+00
     .700000000000D+01  .785312500000D+02  .450554481688D-08 -.293705753164D+01
     .415742397308D-05  .611635274254D-03  .842474400997D-05  .515366221237D+04
     .381600000000D+06 -.223517417908D-07 -.308548022750D+01 -.223517417908D-07
     .959261058788D+00  .214937500000D+03 -.252564965876D+01 -.808676541767D-08
     .385730352932D-09  .100000000000D+01  .192200000000D+04  .000000000000D+00
     .240000000000D+01  .000000000000D+00  .465661287308D-09  .700000000000D+01
     .374406000000D+06  .400000000000D+01
29 16 11 10  9 59 44.0  .644103623927D-03 -.159161572810D-11  .000000000000D+00
     .000000000000D+00  .496250000000D+02  .439875465436D-08 -.143622610316D+01
     .268034636974D-05  .496912747622D-03  .748597085476D-05  .515371981239D+04
     .381584000000D+06  .819563865662D-07  .118904287424D+00 -.372529029846D-07
     .979403897361D+00  .245125000000D+03 -.371901849148D-01 -.813033866124D-08
     .493949146393D-09  .100000000000D+01  .192200000000D+04  .000000000000D+00
     .240000000000D+01  .000000000000D+00 -.102445483208D-07  .000000000000D+00
     .378756000000D+06  .400000000000D+01
17 16 11 10  9 59 44.0 -.199452042580D-03  .795807864051D-12  .000000000000D+00
     .400000000000D+01  .421875000000D+02  .425624871841D-08  .267531105564D+01
     .213645398617D-05  .114213667111D-01  .695139169693D-05  .515376903534D+04
     .381584000000D+06  .111758708954D-06  .109011685734D+00 -.126659870148D-06
     .978374120066D+00  .251656250000D+03 -.191296998066D+01 -.783211195319D-08
     .374301305437D-09  .100000000000D+01  .192200000000D+04  .000000000000D+00
     .240000000000D+01  .000000000000D+00 -.107102096081D-07  .400000000000D+01
     .378906000000D+06  .400000000000D+01
12 16 11 10  9 59 44.0  .389486551285D-03  .000000000000D+00  .000000000000D+00
     .300000000000D+01 -.188437500000D+02  .380265839599D-08 -.655481986884D+00
    -.851228833199D-06  .607482960913D-02  .119172036648D-04  .515363700294D+04
     .381584000000D+06  .540167093277D-07 -.928988956416D+00  .912696123123D-07
     .989983950588D+00  .167968750000D+03  .780790097259D+00 -.776496629916D-08
    -.800033324599D-10  .100000000000D+01  .192200000000D+04  .000000000000D+00
     .240000000000D+01  .000000000000D+00 -.125728547573D-07  .300000000000D+01
     .378936000000D+06  .400000000000D+01
